NORAD_CAT_ID,OBJECT_NAME,OBJECT_TYPE,EPOCH,MEAN_MOTION,ECCENTRICITY,INCLINATION,RA_OF_ASC_NODE,ARG_OF_PERICENTER,MEAN_ANOMALY,BSTAR,MEAN_MOTION_DOT,MEAN_MOTION_DDOT,TLE_LINE0,TLE_LINE1,TLE_LINE2,SEMIMAJOR_AXIS,PERIOD,APOGEE,PERIGEE,DECAYED
52263.0,STARLINK-3786,PAYLOAD,2022-07-18 14:00:01,15.08832139,0.0001776999999999,53.2137,320.198,55.9658,132.3291,-0.00048414,-7.983e-05,0.0,0 STARLINK-3786,1 52263U 22041C   22199.58334491 -.00007983  00000-0 -48414-3 0  9990,2 52263  53.2137 320.1980 0001777  55.9658 132.3291 15.08832139 14774,6917.904,95.438,540.999,538.54,0.0
52263.0,STARLINK-3786,PAYLOAD,2022-07-18 22:00:00,15.08846339,0.000178,53.2138,318.7012,53.2885,146.5848,-0.00044359,-7.342e-05,0.0,0 STARLINK-3786,1 52263U 22041C   22199.91667824 -.00007342  00000-0 -44359-3 0  9999,2 52263  53.2138 318.7012 0001780  53.2885 146.5848 15.08846339  1308,6917.861,95.437,540.957,538.495,0.0
52263.0,STARLINK-3786,PAYLOAD,2022-07-19 06:00:00,15.08834119,0.0001629999999999,53.2137,317.2035,59.6058,151.8744,0.0025998,0.00041324,0.0,0 STARLINK-3786,1 52263U 22041C   22200.25001157  .00041324  00000-0  25998-2 0  9993,2 52263  53.2137 317.2035 0001630  59.6058 151.8744 15.08834119 14875,6917.898,95.438,540.891,538.636,0.0
52263.0,STARLINK-3786,PAYLOAD,2022-07-19 14:00:01,15.08839294,0.0001866,53.2137,315.7086,56.9173,166.1738,-0.00051463,-8.469e-05,0.0,0 STARLINK-3786,1 52263U 22041C   22200.58334491 -.00008469  00000-0 -51463-3 0  9991,2 52263  53.2137 315.7086 0001866  56.9173 166.1738 15.08839294 14920,6917.8830000000025,95.438,541.038,538.457,0.0
52263.0,STARLINK-3786,PAYLOAD,2022-07-19 22:00:00,15.08876287,0.0001693,53.2147,314.2106,50.47,184.2069,-0.0061382,-0.00096765,0.0,0 STARLINK-3786,1 52263U 22041C   22200.91667824 -.00096765  00000-0 -61382-2 0  9993,2 52263  53.2147 314.2106 0001693  50.4700 184.2069 15.08876287  1300,6917.769,95.435,540.806,538.4630000000002,0.0
52263.0,STARLINK-3786,PAYLOAD,2022-07-20 14:00:01,15.08840371,0.0001678,53.2134,311.219,53.8702,204.0184,-0.0016695,-0.0002676,0.0,0 STARLINK-3786,1 52263U 22041C   22201.58334491 -.00026760  00000-0 -16695-2 0  9993,2 52263  53.2134 311.2190 0001678  53.8702 204.0184 15.08840371 15071,6917.879,95.438,540.905,538.5830000000002,0.0
52263.0,STARLINK-3786,PAYLOAD,2022-07-20 22:00:01,15.08814055,0.0001527,53.2131,309.7221,48.6303,220.8431,-0.0012833,-0.00020639,0.0,0 STARLINK-3786,1 52263U 22041C   22201.91668981 -.00020639  00000-0 -12833-2 0  9993,2 52263  53.2131 309.7221 0001527  48.6303 220.8431 15.08814055  1309,6917.96,95.439,540.881,538.768,0.0
52263.0,STARLINK-3786,PAYLOAD,2022-07-21 14:00:01,15.08812492,0.0001559,53.2131,306.7298,50.4409,242.1435,5.1723e-05,5.35e-06,0.0,0 STARLINK-3786,1 52263U 22041C   22202.58335648  .00000535  00000-0  51723-4 0  9992,2 52263  53.2131 306.7298 0001559  50.4409 242.1435 15.08812492  1307,6917.964,95.439,540.908,538.751,0.0
52263.0,STARLINK-3786,PAYLOAD,2022-07-21 22:00:00,15.08838055,0.0001503,53.2127,305.2328,49.3916,254.6889,-0.0016989999999999,-0.00027224,0.0,0 STARLINK-3786,1 52263U 22041C   22202.91667824 -.00027224  00000-0 -16990-2 0  9994,2 52263  53.2127 305.2328 0001503  49.3916 254.6889 15.08838055  1303,6917.886,95.438,540.7909999999998,538.712,0.0
52263.0,STARLINK-3786,PAYLOAD,2022-07-22 06:00:00,15.08818142,0.0001415,53.2128,303.7352,57.0627,258.6007,0.0024552,0.0003898,0.0,0 STARLINK-3786,1 52263U 22041C   22203.25001157  .00038980  00000-0  24552-2 0  9995,2 52263  53.2128 303.7352 0001415  57.0627 258.6007 15.08818142  1302,6917.946999999999,95.439,540.7909999999998,538.8330000000002,0.0
52263.0,STARLINK-3786,PAYLOAD,2022-07-22 12:00:00,15.08847119,0.0001525,53.2127,302.6143,51.478,182.8787,-0.00065069,-0.00010631,0.0,0 STARLINK-3786,1 52263U 22041C   22203.50001157 -.00010631  00000-0 -65069-3 0  9997,2 52263  53.2127 302.6143 0001525  51.4780 182.8787 15.08847119 15367,6917.859,95.437,540.779,538.669,0.0
52263.0,STARLINK-3786,PAYLOAD,2022-07-22 22:00:00,15.08869439,0.0001528,53.2124,300.7431,48.8009,290.0548,-0.0016000999999999,-0.00025684,0.0,0 STARLINK-3786,1 52263U 22041C   22203.91667824 -.00025684  00000-0 -16001-2 0  9996,2 52263  53.2124 300.7431 0001528  48.8009 290.0548 15.08869439  1305,6917.79,95.436,540.712,538.5980000000002,0.0
52263.0,STARLINK-3786,PAYLOAD,2022-07-23 06:00:00,15.08865283,0.0001486999999999,53.2126,299.2456,56.6724,293.8040000000001,0.00032295,4.859e-05,0.0,0 STARLINK-3786,1 52263U 22041C   22204.25001157  .00004859  00000-0  32295-3 0  9998,2 52263  53.2126 299.2456 0001487  56.6724 293.8040 15.08865283 15475,6917.803000000001,95.436,540.697,538.639,0.0
52263.0,STARLINK-3786,PAYLOAD,2022-07-23 14:00:01,15.08840031,0.0001717,53.2126,297.7508,52.0691,310.087,-4.9924e-05,-1.083e-05,0.0,0 STARLINK-3786,1 52263U 22041C   22204.58335648 -.00001083  00000-0 -49924-4 0  9995,2 52263  53.2126 297.7508 0001717  52.0691 310.0870 15.08840031 15528,6917.88,95.438,540.933,538.557,0.0
52263.0,STARLINK-3786,PAYLOAD,2022-07-23 22:00:00,15.08868767,0.0001652,53.2125,296.2533,51.1343,322.5595,-0.0014648,-0.00023543,0.0,0 STARLINK-3786,1 52263U 22041C   22204.91667824 -.00023543  00000-0 -14648-2 0  9994,2 52263  53.2125 296.2533 0001652  51.1343 322.5595 15.08868767  1300,6917.792,95.436,540.8,538.515,0.0
52263.0,STARLINK-3786,PAYLOAD,2022-07-24 06:00:00,15.08850491,0.0001591,53.2127,294.7559,57.68,327.6234,0.0018164,0.00028747,0.0,0 STARLINK-3786,1 52263U 22041C   22205.25001157  .00028747  00000-0  18164-2 0  9999,2 52263  53.2127 294.7559 0001591  57.6800 327.6234 15.08850491 15636,6917.848000000001,95.437,540.814,538.613,0.0
52263.0,STARLINK-3786,PAYLOAD,2022-07-24 14:00:01,15.08869046,0.0001754999999999,53.2128,293.2612,50.1719,346.751,-0.0027343,-0.00043577,0.0,0 STARLINK-3786,1 52263U 22041C   22205.58334491 -.00043577  00000-0 -27343-2 0  9994,2 52263  53.2128 293.2612 0001755  50.1719 346.7510 15.08869046  1304,6917.792,95.436,540.871,538.443,0.0
52263.0,STARLINK-3786,PAYLOAD,2022-07-24 22:00:00,15.0884964,0.000169,53.2128,291.7636,50.7374,357.7985,-0.0041751,-0.00066143,0.0,0 STARLINK-3786,1 52263U 22041C   22205.91667824 -.00066143  00000-0 -41751-2 0  9993,2 52263  53.2128 291.7636 0001690  50.7374 357.7985 15.08849640 15732,6917.851,95.437,540.885,538.547,0.0
52263.0,STARLINK-3786,PAYLOAD,2022-07-25 14:00:01,15.0880839,0.0001862,53.2132,288.7718,51.2097,20.4694,0.0010234999999999,0.00016025,0.0,0 STARLINK-3786,1 52263U 22041C   22206.58334491  .00016025  00000-0  10235-2 0  9993,2 52263  53.2132 288.7718 0001862  51.2097  20.4694 15.08808390  1309,6917.977,95.44,541.13,538.554,0.0
52263.0,STARLINK-3786,PAYLOAD,2022-07-25 22:00:00,15.08836034,0.0001764,53.2132,287.2743,52.2495,30.9928,-0.0015787,-0.00025323,0.0,0 STARLINK-3786,1 52263U 22041C   22206.91667824 -.00025323  00000-0 -15787-2 0  9999,2 52263  53.2132 287.2743 0001764  52.2495  30.9928 15.08836034  1307,6917.893,95.438,540.9780000000002,538.5369999999998,0.0
52263.0,STARLINK-3786,PAYLOAD,2022-07-26 14:00:01,15.08818564,0.0001884,53.2134,284.2827,50.7266,55.6794,0.0013421,0.00021124,0.0,0 STARLINK-3786,1 52263U 22041C   22207.58334491  .00021124  00000-0  13421-2 0  9990,2 52263  53.2134 284.2827 0001884  50.7266  55.6794 15.08818564  1304,6917.946,95.439,541.114,538.508,0.0
52263.0,STARLINK-3786,PAYLOAD,2022-07-26 22:00:00,15.088447899999998,0.0001763,53.2134,282.7851,53.0071,64.9769,-0.0014342,-0.00023044,0.0,0 STARLINK-3786,1 52263U 22041C   22207.91667824 -.00023044  00000-0 -14342-2 0  9994,2 52263  53.2134 282.7851 0001763  53.0071  64.9769 15.08844790 16031,6917.866,95.437,540.95,538.511,0.0
52263.0,STARLINK-3786,PAYLOAD,2022-07-27 06:00:02,15.08966789,0.0001818,53.216,281.2866,53.3107,76.2999,-0.0047079999999999,-0.00074699,0.0,0 STARLINK-3786,1 52263U 22041C   22208.25002315 -.00074699  00000-0 -47080-2 0  9997,2 52263  53.2160 281.2866 0001818  53.3107  76.2999 15.08966789 16083,6917.493,95.43,540.615,538.1,0.0
52263.0,STARLINK-3786,PAYLOAD,2022-07-27 14:00:01,15.08828447,0.0001904,53.2133,279.7934,47.7922,93.4446,0.0017733,0.00028038,0.0,0 STARLINK-3786,1 52263U 22041C   22208.58334491  .00028038  00000-0  17733-2 0  9992,2 52263  53.2133 279.7934 0001904  47.7922  93.4446 15.08828447 16131,6917.916,95.438,541.0980000000002,538.464,0.0
52263.0,STARLINK-3786,PAYLOAD,2022-07-27 22:00:00,15.08854175,0.0001757,53.2131,278.2957,50.9065,101.9242,-0.0010712,-0.00017303,0.0,0 STARLINK-3786,1 52263U 22041C   22208.91667824 -.00017303  00000-0 -10712-2 0  9993,2 52263  53.2131 278.2957 0001757  50.9065 101.9242 15.08854175  1307,6917.837,95.437,540.918,538.487,0.0
52263.0,STARLINK-3786,PAYLOAD,2022-07-28 14:00:01,15.08841252,0.0001863,53.2132,275.3042,47.5545,128.4983,0.0010809,0.00016957,0.0,0 STARLINK-3786,1 52263U 22041C   22209.58334491  .00016957  00000-0  10809-2 0  9997,2 52263  53.2132 275.3042 0001863  47.5545 128.4983 15.08841252  1302,6917.877,95.437,541.03,538.453,0.0
52263.0,STARLINK-3786,PAYLOAD,2022-07-28 22:00:00,15.08843132,0.0001652,53.2135,273.8062,49.7117,137.9534,-0.0016503,-0.00026459,0.0,0 STARLINK-3786,1 52263U 22041C   22209.91667824 -.00026459  00000-0 -16503-2 0  9990,2 52263  53.2135 273.8062 0001652  49.7117 137.9534 15.08843132  1301,6917.871,95.437,540.879,538.5930000000002,0.0
52263.0,STARLINK-3786,PAYLOAD,2022-07-29 14:00:01,15.08813255,0.0001801,53.2138,270.8149,46.0424,164.8039,0.0024904,0.00039541,0.0,0 STARLINK-3786,1 52263U 22041C   22210.58334491  .00039541  00000-0  24904-2 0  9994,2 52263  53.2138 270.8149 0001801  46.0424 164.8039 15.08813255 16436,6917.962,95.439,541.073,538.581,0.0
52263.0,STARLINK-3786,PAYLOAD,2022-07-29 22:00:00,15.08836472,0.0001636,53.2135,269.3169,50.0767,172.3558,-0.00022363,-3.845e-05,0.0,0 STARLINK-3786,1 52263U 22041C   22210.91667824 -.00003845  00000-0 -22363-3 0  9998,2 52263  53.2135 269.3169 0001636  50.0767 172.3558 15.08836472  1305,6917.891,95.438,540.888,538.624,0.0
